OBJECT_NAME,OBJECT_ID,EPOCH,MEAN_MOTION,ECCENTRICITY,INCLINATION,RA_OF_ASC_NODE,ARG_OF_PERICENTER,MEAN_ANOMALY,EPHEMERIS_TYPE,CLASSIFICATION_TYPE,NORAD_CAT_ID,ELEMENT_SET_NO,REV_AT_EPOCH,BSTAR,MEAN_MOTION_DOT,MEAN_MOTION_DDOT
TYVAK-182A,2021-034D,2026-05-19T21:26:07.864512,15.05869194,.00075872,97.5740,199.3055,74.9955,285.2111,0,U,48271,999,27557,.24444547E-3,.3491E-4,0
CSS (TIANHE),2021-035A,2026-05-19T22:36:02.494656,15.60684127,.00075135,41.4672,133.7605,262.7903,97.2082,0,U,48274,999,28875,.13684478E-3,.11373E-3,0
TYVAK-0130,2021-041BF,2026-05-19T18:38:52.758528,15.27136227,.0011433,52.9945,157.9808,80.1915,280.0373,0,U,48606,999,27604,.17062982E-3,.4258E-4,0
HAIYANG-2D,2021-043A,2026-05-19T22:52:13.793088,13.83373186,.00113837,66.0004,14.9952,272.3946,87.5819,0,U,48621,999,25264,.33091691E-4,-.45E-6,0
2021-050D,2021-050D,2026-05-19T22:56:07.233792,15.23012164,.00057534,97.3339,216.6391,21.8465,338.3017,0,U,48843,999,27466,.11499558E-3,.2636E-4,0
TYVAK-0173,2021-059P,2026-05-19T23:19:03.220320,14.81782853,.00108701,96.0086,223.3429,120.3922,239.8372,0,U,48892,999,26406,.14778316E-3,.1135E-4,0
MANDRAKE 2 ABLE,2021-059AE,2026-05-19T18:48:41.505408,15.53752470,.00062599,97.7041,327.4288,97.4473,262.7491,0,U,48907,999,27271,.23783197E-3,.1515E-3,0
MANDRAKE 2 BAKER,2021-059AF,2026-05-19T19:06:00.653760,15.58015767,.00048875,97.7015,330.1222,96.8180,263.3631,0,U,48908,999,27287,.25944216E-3,.19359E-3,0
PACE-1,2021-059AG,2026-05-19T06:57:10.663200,15.75121275,.00024406,97.6792,334.2805,85.1974,274.9569,0,U,48909,999,27324,.32089327E-3,.47861E-3,0
YAM-3,2021-059AN,2026-05-19T22:50:59.368128,15.47871349,.00066782,97.6992,325.0778,97.9695,262.2312,0,U,48915,999,27262,.17459495E-3,.899E-4,0
FARADAY_PHOENIX,2021-059AX,2026-05-19T19:32:22.472736,15.71623520,.00046148,97.6845,334.8444,89.2102,270.9689,0,U,48924,999,27319,.65675466E-3,.84931E-3,0
DEMO8 (TENZING),2021-059CA,2026-05-19T18:54:03.403296,15.53823393,.00083593,97.7034,331.0692,91.8956,268.3254,0,U,48951,999,27289,.22676932E-3,.14486E-3,0
NAPA-2,2021-059CN,2026-05-19T17:38:02.463936,15.86658656,.00014307,97.6766,335.1217,116.5832,243.5585,0,U,48963,999,27328,.54942036E-3,.140614E-2,0
FENGYUN 3E,2021-062A,2026-05-20T00:21:26.828640,14.19900637,.00021486,98.7493,143.7372,134.5068,225.6284,0,U,49008,999,25258,-.64210391E-4,-.18E-5,0
ISS (NAUKA),2021-066A,2026-05-19T19:27:10.117728,15.49275598,.00075492,51.6327,80.5761,76.5627,283.6202,0,U,49044,999,56708,.10219917E-3,.5239E-4,0
STARLINK-3100,2021-082Q,2026-05-19T22:25:25.368960,14.98345691,.00035058,69.9988,114.8134,265.0092,95.0667,0,U,49144,999,25665,.21008835E-3,.2416E-4,0
CUTE,2021-088D,2026-05-19T05:51:01.895616,15.79648470,.0002143,97.4199,236.0187,264.5516,95.5506,0,U,49263,999,25796,.5273E-3,.96728E-3,0
2021-091B,2021-091B,2026-05-19T23:42:13.076640,15.18394832,.0014413,97.4473,327.9949,134.0508,226.1916,0,U,49316,999,25470,.12014296E-3,.2408E-4,0
SDGSAT 1,2021-100A,2026-05-19T23:40:15.763584,15.19767152,.0009145,97.2651,187.9802,41.9054,318.2880,0,U,49387,999,25163,.91775974E-4,.1899E-4,0
TEIKYOSAT-4 (OORURI),2021-102B,2026-05-19T19:32:41.072064,15.09395791,.001299,97.3691,170.4003,37.8343,322.3797,0,U,49396,999,24844,.82337861E-4,.1257E-4,0
Z-SAT,2021-102E,2026-05-19T22:07:25.609152,15.18023793,.00162647,97.3338,176.1046,352.6180,7.4812,0,U,49399,999,24915,.92311187E-4,.1817E-4,0
HIBARI,2021-102F,2026-05-19T20:15:10.094976,15.31100900,.00098599,97.3253,186.0803,305.4933,54.5388,0,U,49400,999,24985,.26185915E-3,.7802E-4,0
KOSEN-1,2021-102H,2026-05-19T21:23:14.133984,15.26403256,.00121614,97.3203,182.6039,312.2315,47.7891,0,U,49402,999,24970,.18431326E-3,.4733E-4,0
GLOBAL-14,2021-106A,2026-05-19T14:28:08.180544,15.49108221,.00156417,42.0041,100.7620,191.3433,168.7059,0,U,49469,999,25369,.30379646E-3,.16733E-3,0
GAOFEN-3 02,2021-109A,2026-05-20T00:29:04.401312,14.42212671,.00040272,98.4090,148.5167,79.0761,281.0882,0,U,49495,999,23625,-.2018376E-5,-.5E-6,0
GLOBAL-12,2021-115BA,2026-05-19T21:07:59.726496,15.51928237,.00029331,53.1933,180.4638,355.9200,4.1787,0,U,49772,999,25150,.31797063E-3,.18994E-3,0
GLOBAL-13,2021-115BB,2026-05-19T20:37:44.834880,15.44958393,.00038416,53.1956,189.1328,41.0193,319.1103,0,U,49773,999,25138,.2856434E-3,.13262E-3,0
GLOBAL-17,2021-120A,2026-05-19T16:48:02.471040,15.50738585,.00120102,41.9942,218.8441,49.7470,310.4422,0,U,49949,999,25047,.34018532E-3,.19874E-3,0
GLOBAL-16,2021-120B,2026-05-19T13:08:32.552736,15.48801256,.0010253,41.9947,222.9674,37.2769,322.8784,0,U,49950,999,25040,.31161732E-3,.16939E-3,0
XW-3 (CAS-9),2021-131B,2026-05-19T22:32:56.872032,14.41326854,.00043336,98.4970,232.4840,166.2080,193.9229,0,U,50466,999,23104,.87687671E-4,.24E-5,0
