TYVAK-182A              
1 48271U 21034D   26139.89314658  .00003491  00000+0  24445-3 0  9995
2 48271  97.5740 199.3055 0007587  74.9955 285.2111 15.05869194275578
CSS (TIANHE)            
1 48274U 21035A   26139.94169554  .00011373  00000+0  13684-3 0  9999
2 48274  41.4672 133.7605 0007513 262.7903  97.2082 15.60684127288759
TYVAK-0130              
1 48606U 21041BF  26139.77699952  .00004258  00000+0  17063-3 0  9995
2 48606  52.9945 157.9808 0011433  80.1915 280.0373 15.27136227276042
HAIYANG-2D              
1 48621U 21043A   26139.95293742 -.00000045  00000+0  33092-4 0  9993
2 48621  66.0004  14.9952 0011383 272.3946  87.5819 13.83373186252648
2021-050D               
1 48843U 21050D   26139.95563928  .00002636  00000+0  11500-3 0  9999
2 48843  97.3339 216.6391 0005753  21.8465 338.3017 15.23012164274662
TYVAK-0173              
1 48892U 21059P   26139.97156505  .00001135  00000+0  14778-3 0  9996
2 48892  96.0086 223.3429 0010870 120.3922 239.8372 14.81782853264061
MANDRAKE 2 ABLE         
1 48907U 21059AE  26139.78381372  .00015150  00000+0  23783-3 0  9992
2 48907  97.7041 327.4288 0006259  97.4473 262.7491 15.53752470272717
MANDRAKE 2 BAKER        
1 48908U 21059AF  26139.79584090  .00019359  00000+0  25944-3 0  9992
2 48908  97.7015 330.1222 0004887  96.8180 263.3631 15.58015767272877
PACE-1                  
1 48909U 21059AG  26139.28970675  .00047861  00000+0  32089-3 0  9992
2 48909  97.6792 334.2805 0002440  85.1974 274.9569 15.75121275273247
YAM-3                   
1 48915U 21059AN  26139.95207602  .00008990  00000+0  17459-3 0  9990
2 48915  97.6992 325.0778 0006678  97.9695 262.2312 15.47871349272621
FARADAY_PHOENIX         
1 48924U 21059AX  26139.81414899  .00084931  00000+0  65675-3 0  9995
2 48924  97.6845 334.8444 0004614  89.2102 270.9689 15.71623520273190
DEMO8 (TENZING)         
1 48951U 21059CA  26139.78753939  .00014486  00000+0  22677-3 0  9995
2 48951  97.7034 331.0692 0008359  91.8956 268.3254 15.53823393272896
NAPA-2                  
1 48963U 21059CN  26139.73475074  .00140614  00000+0  54942-3 0  9997
2 48963  97.6766 335.1217 0001430 116.5832 243.5585 15.86658656273289
FENGYUN 3E              
1 49008U 21062A   26140.01489385 -.00000180  00000+0 -64210-4 0  9990
2 49008  98.7493 143.7372 0002148 134.5068 225.6284 14.19900637252583
ISS (NAUKA)             
1 49044U 21066A   26139.81053377  .00005239  00000+0  10220-3 0  9997
2 49044  51.6327  80.5761 0007549  76.5627 283.6202 15.49275598567086
STARLINK-3100           
1 49144U 21082Q   26139.93432140  .00002416  00000+0  21009-3 0  9999
2 49144  69.9988 114.8134 0003505 265.0092  95.0667 14.98345691256659
CUTE                    
1 49263U 21088D   26139.24377194  .00096728  00000+0  52730-3 0  9992
2 49263  97.4199 236.0187 0002143 264.5516  95.5506 15.79648470257961
2021-091B               
1 49316U 21091B   26139.98765135  .00002408  00000+0  12014-3 0  9995
2 49316  97.4473 327.9949 0014413 134.0508 226.1916 15.18394832254705
SDGSAT 1                
1 49387U 21100A   26139.98629356  .00001899  00000+0  91776-4 0  9994
2 49387  97.2651 187.9802 0009145  41.9054 318.2880 15.19767152251631
TEIKYOSAT-4 (OORURI)    
1 49396U 21102B   26139.81436426  .00001257  00000+0  82338-4 0  9994
2 49396  97.3691 170.4003 0012990  37.8343 322.3797 15.09395791248446
Z-SAT                   
1 49399U 21102E   26139.92182418  .00001817  00000+0  92311-4 0  9992
2 49399  97.3338 176.1046 0016264 352.6180   7.4812 15.18023793249150
HIBARI                  
1 49400U 21102F   26139.84386684  .00007802  00000+0  26186-3 0  9993
2 49400  97.3253 186.0803 0009859 305.4933  54.5388 15.31100900249853
KOSEN-1                 
1 49402U 21102H   26139.89113581  .00004733  00000+0  18431-3 0  9998
2 49402  97.3203 182.6039 0012161 312.2315  47.7891 15.26403256249704
GLOBAL-14               
1 49469U 21106A   26139.60287246  .00016733  00000+0  30380-3 0  9994
2 49469  42.0041 100.7620 0015641 191.3433 168.7059 15.49108221253696
GAOFEN-3 02             
1 49495U 21109A   26140.02018983 -.00000050  00000+0 -20184-5 0  9994
2 49495  98.4090 148.5167 0004027  79.0761 281.0882 14.42212671236255
GLOBAL-12               
1 49772U 21115BA  26139.88055239  .00018994  00000+0  31797-3 0  9990
2 49772  53.1933 180.4638 0002933 355.9200   4.1787 15.51928237251509
GLOBAL-13               
1 49773U 21115BB  26139.85954670  .00013262  00000+0  28564-3 0  9996
2 49773  53.1956 189.1328 0003841  41.0193 319.1103 15.44958393251385
GLOBAL-17               
1 49949U 21120A   26139.70002860  .00019874  00000+0  34019-3 0  9993
2 49949  41.9942 218.8441 0012010  49.7470 310.4422 15.50738585250470
GLOBAL-16               
1 49950U 21120B   26139.54759899  .00016939  00000+0  31162-3 0  9993
2 49950  41.9947 222.9674 0010253  37.2769 322.8784 15.48801256250405
XW-3 (CAS-9)            
1 50466U 21131B   26139.93954713  .00000240  00000+0  87688-4 0  9997
2 50466  98.4970 232.4840 0004333 166.2080 193.9229 14.41326854231042
